CCSDS_OMM_VERS = 2.0
CREATION_DATE  = 
ORIGINATOR     = 

OBJECT_NAME    = STARLINK-36057
OBJECT_ID      = 2025-283G
CENTER_NAME    = EARTH
REF_FRAME      = TEME
TIME_SYSTEM    = UTC
MEAN_ELEMENT_THEORY = SGP/SGP4

EPOCH          = 2025-12-22T20:00:01.999008
MEAN_MOTION    = 15.72137514
ECCENTRICITY   = .0001274
INCLINATION    = 53.1586
RA_OF_ASC_NODE = 23.3009
ARG_OF_PERICENTER = 83.1670
MEAN_ANOMALY   = 40.7864

EPHEMERIS_TYPE = 0
CLASSIFICATION_TYPE = U
NORAD_CAT_ID   = 66884
ELEMENT_SET_NO = 999
REV_AT_EPOCH   = 405
BSTAR          = -.16323E-1
MEAN_MOTION_DOT = -.1940906E-1
MEAN_MOTION_DDOT = 0

CCSDS_OMM_VERS = 2.0
CREATION_DATE  = 
ORIGINATOR     = 

OBJECT_NAME    = STARLINK-35954
OBJECT_ID      = 2025-283H
CENTER_NAME    = EARTH
REF_FRAME      = TEME
TIME_SYSTEM    = UTC
MEAN_ELEMENT_THEORY = SGP/SGP4

EPOCH          = 2025-12-22T20:00:01.999008
MEAN_MOTION    = 15.72148372
ECCENTRICITY   = .000126
INCLINATION    = 53.1588
RA_OF_ASC_NODE = 23.3052
ARG_OF_PERICENTER = 73.7245
MEAN_ANOMALY   = 48.3099

EPHEMERIS_TYPE = 0
CLASSIFICATION_TYPE = U
NORAD_CAT_ID   = 66885
ELEMENT_SET_NO = 999
REV_AT_EPOCH   = 405
BSTAR          = -.16476E-1
MEAN_MOTION_DOT = -.1957762E-1
MEAN_MOTION_DDOT = 0

CCSDS_OMM_VERS = 2.0
CREATION_DATE  = 
ORIGINATOR     = 

OBJECT_NAME    = STARLINK-35900
OBJECT_ID      = 2025-283J
CENTER_NAME    = EARTH
REF_FRAME      = TEME
TIME_SYSTEM    = UTC
MEAN_ELEMENT_THEORY = SGP/SGP4

EPOCH          = 2025-12-22T20:00:01.999008
MEAN_MOTION    = 15.72265515
ECCENTRICITY   = .0001217
INCLINATION    = 53.1588
RA_OF_ASC_NODE = 23.2968
ARG_OF_PERICENTER = 102.8770
MEAN_ANOMALY   = 22.9747

EPHEMERIS_TYPE = 0
CLASSIFICATION_TYPE = U
NORAD_CAT_ID   = 66886
ELEMENT_SET_NO = 999
REV_AT_EPOCH   = 405
BSTAR          = -.18077E-1
MEAN_MOTION_DOT = -.2133281E-1
MEAN_MOTION_DDOT = 0

CCSDS_OMM_VERS = 2.0
CREATION_DATE  = 
ORIGINATOR     = 

OBJECT_NAME    = STARLINK-35925
OBJECT_ID      = 2025-283K
CENTER_NAME    = EARTH
REF_FRAME      = TEME
TIME_SYSTEM    = UTC
MEAN_ELEMENT_THEORY = SGP/SGP4

EPOCH          = 2025-12-22T20:00:01.999008
MEAN_MOTION    = 15.72148704
ECCENTRICITY   = .000125
INCLINATION    = 53.1587
RA_OF_ASC_NODE = 23.2930
ARG_OF_PERICENTER = 68.9350
MEAN_ANOMALY   = 58.8477

EPHEMERIS_TYPE = 0
CLASSIFICATION_TYPE = U
NORAD_CAT_ID   = 66887
ELEMENT_SET_NO = 999
REV_AT_EPOCH   = 405
BSTAR          = -.16467E-1
MEAN_MOTION_DOT = -.1956816E-1
MEAN_MOTION_DDOT = 0

CCSDS_OMM_VERS = 2.0
CREATION_DATE  = 
ORIGINATOR     = 

OBJECT_NAME    = STARLINK-35919
OBJECT_ID      = 2025-283L
CENTER_NAME    = EARTH
REF_FRAME      = TEME
TIME_SYSTEM    = UTC
MEAN_ELEMENT_THEORY = SGP/SGP4

EPOCH          = 2025-12-22T20:00:01.999008
MEAN_MOTION    = 15.72139600
ECCENTRICITY   = .0001352
INCLINATION    = 53.1590
RA_OF_ASC_NODE = 23.2886
ARG_OF_PERICENTER = 73.0613
MEAN_ANOMALY   = 56.6437

EPHEMERIS_TYPE = 0
CLASSIFICATION_TYPE = U
NORAD_CAT_ID   = 66888
ELEMENT_SET_NO = 999
REV_AT_EPOCH   = 405
BSTAR          = -.16374E-1
MEAN_MOTION_DOT = -.1946425E-1
MEAN_MOTION_DDOT = 0

CCSDS_OMM_VERS = 2.0
CREATION_DATE  = 
ORIGINATOR     = 

OBJECT_NAME    = STARLINK-35852
OBJECT_ID      = 2025-283M
CENTER_NAME    = EARTH
REF_FRAME      = TEME
TIME_SYSTEM    = UTC
MEAN_ELEMENT_THEORY = SGP/SGP4

EPOCH          = 2025-12-22T20:00:01.999008
MEAN_MOTION    = 15.72147537
ECCENTRICITY   = .0001398
INCLINATION    = 53.1589
RA_OF_ASC_NODE = 23.2841
ARG_OF_PERICENTER = 76.4020
MEAN_ANOMALY   = 55.2153

EPHEMERIS_TYPE = 0
CLASSIFICATION_TYPE = U
NORAD_CAT_ID   = 66889
ELEMENT_SET_NO = 999
REV_AT_EPOCH   = 405
BSTAR          = -.16459E-1
MEAN_MOTION_DOT = -.1956041E-1
MEAN_MOTION_DDOT = 0

CCSDS_OMM_VERS = 2.0
CREATION_DATE  = 
ORIGINATOR     = 

OBJECT_NAME    = STARLINK-35885
OBJECT_ID      = 2025-283N
CENTER_NAME    = EARTH
REF_FRAME      = TEME
TIME_SYSTEM    = UTC
MEAN_ELEMENT_THEORY = SGP/SGP4

EPOCH          = 2025-12-22T20:00:01.999008
MEAN_MOTION    = 15.72152780
ECCENTRICITY   = .000122
INCLINATION    = 53.1586
RA_OF_ASC_NODE = 23.2806
ARG_OF_PERICENTER = 89.3564
MEAN_ANOMALY   = 44.1745

EPHEMERIS_TYPE = 0
CLASSIFICATION_TYPE = U
NORAD_CAT_ID   = 66890
ELEMENT_SET_NO = 999
REV_AT_EPOCH   = 405
BSTAR          = -.16501E-1
MEAN_MOTION_DOT = -.1960652E-1
MEAN_MOTION_DDOT = 0

CCSDS_OMM_VERS = 2.0
CREATION_DATE  = 
ORIGINATOR     = 

OBJECT_NAME    = STARLINK-35855
OBJECT_ID      = 2025-283P
CENTER_NAME    = EARTH
REF_FRAME      = TEME
TIME_SYSTEM    = UTC
MEAN_ELEMENT_THEORY = SGP/SGP4

EPOCH          = 2025-12-22T20:00:01.999008
MEAN_MOTION    = 15.72140814
ECCENTRICITY   = .0001277
INCLINATION    = 53.1588
RA_OF_ASC_NODE = 23.2764
ARG_OF_PERICENTER = 87.8751
MEAN_ANOMALY   = 47.5807

EPHEMERIS_TYPE = 0
CLASSIFICATION_TYPE = U
NORAD_CAT_ID   = 66891
ELEMENT_SET_NO = 999
REV_AT_EPOCH   = 405
BSTAR          = -.16386E-1
MEAN_MOTION_DOT = -.1947757E-1
MEAN_MOTION_DDOT = 0

CCSDS_OMM_VERS = 2.0
CREATION_DATE  = 
ORIGINATOR     = 

OBJECT_NAME    = STARLINK-35883
OBJECT_ID      = 2025-283Q
CENTER_NAME    = EARTH
REF_FRAME      = TEME
TIME_SYSTEM    = UTC
MEAN_ELEMENT_THEORY = SGP/SGP4

EPOCH          = 2025-12-22T20:00:01.999008
MEAN_MOTION    = 15.72147988
ECCENTRICITY   = .0001273
INCLINATION    = 53.1589
RA_OF_ASC_NODE = 23.2719
ARG_OF_PERICENTER = 80.6320
MEAN_ANOMALY   = 56.7350

EPHEMERIS_TYPE = 0
CLASSIFICATION_TYPE = U
NORAD_CAT_ID   = 66892
ELEMENT_SET_NO = 999
REV_AT_EPOCH   = 399
BSTAR          = -.16442E-1
MEAN_MOTION_DOT = -.1954201E-1
MEAN_MOTION_DDOT = 0

CCSDS_OMM_VERS = 2.0
CREATION_DATE  = 
ORIGINATOR     = 

OBJECT_NAME    = STARLINK-36033
OBJECT_ID      = 2025-283R
CENTER_NAME    = EARTH
REF_FRAME      = TEME
TIME_SYSTEM    = UTC
MEAN_ELEMENT_THEORY = SGP/SGP4

EPOCH          = 2025-12-22T20:00:01.999008
MEAN_MOTION    = 15.72138739
ECCENTRICITY   = .0001261
INCLINATION    = 53.1587
RA_OF_ASC_NODE = 23.2680
ARG_OF_PERICENTER = 73.1015
MEAN_ANOMALY   = 66.1891

EPHEMERIS_TYPE = 0
CLASSIFICATION_TYPE = U
NORAD_CAT_ID   = 66893
ELEMENT_SET_NO = 999
REV_AT_EPOCH   = 405
BSTAR          = -.16368E-1
MEAN_MOTION_DOT = -.1945671E-1
MEAN_MOTION_DDOT = 0

CCSDS_OMM_VERS = 2.0
CREATION_DATE  = 
ORIGINATOR     = 

OBJECT_NAME    = STARLINK-35718
OBJECT_ID      = 2025-283S
CENTER_NAME    = EARTH
REF_FRAME      = TEME
TIME_SYSTEM    = UTC
MEAN_ELEMENT_THEORY = SGP/SGP4

EPOCH          = 2025-12-22T20:00:01.999008
MEAN_MOTION    = 15.72148228
ECCENTRICITY   = .000139
INCLINATION    = 53.1587
RA_OF_ASC_NODE = 23.2649
ARG_OF_PERICENTER = 74.6655
MEAN_ANOMALY   = 66.5332

EPHEMERIS_TYPE = 0
CLASSIFICATION_TYPE = U
NORAD_CAT_ID   = 66894
ELEMENT_SET_NO = 999
REV_AT_EPOCH   = 405
BSTAR          = -.16445E-1
MEAN_MOTION_DOT = -.1954562E-1
MEAN_MOTION_DDOT = 0

CCSDS_OMM_VERS = 2.0
CREATION_DATE  = 
ORIGINATOR     = 

OBJECT_NAME    = STARLINK-35971
OBJECT_ID      = 2025-283T
CENTER_NAME    = EARTH
REF_FRAME      = TEME
TIME_SYSTEM    = UTC
MEAN_ELEMENT_THEORY = SGP/SGP4

EPOCH          = 2025-12-22T20:00:01.999008
MEAN_MOTION    = 15.72148891
ECCENTRICITY   = .0001124
INCLINATION    = 53.1588
RA_OF_ASC_NODE = 23.2549
ARG_OF_PERICENTER = 63.6708
MEAN_ANOMALY   = 81.3669

EPHEMERIS_TYPE = 0
CLASSIFICATION_TYPE = U
NORAD_CAT_ID   = 66895
ELEMENT_SET_NO = 999
REV_AT_EPOCH   = 405
BSTAR          = -.16504E-1
MEAN_MOTION_DOT = -.1960652E-1
MEAN_MOTION_DDOT = 0

CCSDS_OMM_VERS = 2.0
CREATION_DATE  = 
ORIGINATOR     = 

OBJECT_NAME    = STARLINK-35791
OBJECT_ID      = 2025-283U
CENTER_NAME    = EARTH
REF_FRAME      = TEME
TIME_SYSTEM    = UTC
MEAN_ELEMENT_THEORY = SGP/SGP4

EPOCH          = 2025-12-22T20:00:01.999008
MEAN_MOTION    = 15.72146718
ECCENTRICITY   = .0000934
INCLINATION    = 53.1588
RA_OF_ASC_NODE = 23.2594
ARG_OF_PERICENTER = 87.2797
MEAN_ANOMALY   = 55.8388

EPHEMERIS_TYPE = 0
CLASSIFICATION_TYPE = U
NORAD_CAT_ID   = 66896
ELEMENT_SET_NO = 999
REV_AT_EPOCH   = 405
BSTAR          = -.16422E-1
MEAN_MOTION_DOT = -.1951672E-1
MEAN_MOTION_DDOT = 0

CCSDS_OMM_VERS = 2.0
CREATION_DATE  = 
ORIGINATOR     = 

OBJECT_NAME    = STARLINK-36079
OBJECT_ID      = 2025-283V
CENTER_NAME    = EARTH
REF_FRAME      = TEME
TIME_SYSTEM    = UTC
MEAN_ELEMENT_THEORY = SGP/SGP4

EPOCH          = 2025-12-22T20:00:01.999008
MEAN_MOTION    = 15.72143208
ECCENTRICITY   = .0001383
INCLINATION    = 53.1588
RA_OF_ASC_NODE = 23.2520
ARG_OF_PERICENTER = 74.3020
MEAN_ANOMALY   = 72.6511

EPHEMERIS_TYPE = 0
CLASSIFICATION_TYPE = U
NORAD_CAT_ID   = 66897
ELEMENT_SET_NO = 999
REV_AT_EPOCH   = 405
BSTAR          = -.16395E-1
MEAN_MOTION_DOT = -.1948976E-1
MEAN_MOTION_DDOT = 0

CCSDS_OMM_VERS = 2.0
CREATION_DATE  = 
ORIGINATOR     = 

OBJECT_NAME    = STARLINK-36065
OBJECT_ID      = 2025-283W
CENTER_NAME    = EARTH
REF_FRAME      = TEME
TIME_SYSTEM    = UTC
MEAN_ELEMENT_THEORY = SGP/SGP4

EPOCH          = 2025-12-22T20:00:01.999008
MEAN_MOTION    = 15.72149720
ECCENTRICITY   = .0001388
INCLINATION    = 53.1589
RA_OF_ASC_NODE = 23.2475
ARG_OF_PERICENTER = 81.0847
MEAN_ANOMALY   = 67.7839

EPHEMERIS_TYPE = 0
CLASSIFICATION_TYPE = U
NORAD_CAT_ID   = 66898
ELEMENT_SET_NO = 999
REV_AT_EPOCH   = 405
BSTAR          = -.16485E-1
MEAN_MOTION_DOT = -.1958931E-1
MEAN_MOTION_DDOT = 0

